[
    {
        "Altitude(m)": 558185.6611731125,
        "Argument of Periapsis(deg)": 0.033114955553567506,
        "Eccentricity": 0.0,
        "Inclination(deg)": 53.0,
        "Latitude(deg)": -17.76235457620108,
        "Longitude(deg)": -152.87856425712124,
        "Mean Anomaly(deg)": -22.26923566211209,
        "RAAN(deg)": 324.95071684264,
        "Satellite Name": "Starlink Shell 1 1447",
        "Satellite Number": 1447,
        "Semi-Major Axis(m)": 6931778.249405717,
        "Time(s)": 950
    },
    {
        "Altitude(m)": 558036.3781674543,
        "Argument of Periapsis(deg)": 0.03346353403307874,
        "Eccentricity": 0.0,
        "Inclination(deg)": 53.0,
        "Latitude(deg)": -17.27360148995883,
        "Longitude(deg)": -152.50631062280652,
        "Mean Anomaly(deg)": -21.642404458555344,
        "RAAN(deg)": 324.9501980725626,
        "Satellite Name": "Starlink Shell 1 1447",
        "Satellite Number": 1447,
        "Semi-Major Axis(m)": 6931778.249405717,
        "Time(s)": 960
    },
    {
        "Altitude(m)": 557888.8525683434,
        "Argument of Periapsis(deg)": 0.03381211251258998,
        "Eccentricity": 0.0,
        "Inclination(deg)": 53.0,
        "Latitude(deg)": -16.7839635073368,
        "Longitude(deg)": -152.1362198092168,
        "Mean Anomaly(deg)": -21.015573254998596,
        "RAAN(deg)": 324.94967930248515,
        "Satellite Name": "Starlink Shell 1 1447",
        "Satellite Number": 1447,
        "Semi-Major Axis(m)": 6931778.249405717,
        "Time(s)": 970
    },
    {
        "Altitude(m)": 557743.1335651302,
        "Argument of Periapsis(deg)": 0.034160690992101214,
        "Eccentricity": 0.0,
        "Inclination(deg)": 53.0,
        "Latitude(deg)": -16.293470814083918,
        "Longitude(deg)": -151.76821952716182,
        "Mean Anomaly(deg)": -20.388742051441902,
        "RAAN(deg)": 324.94916053240763,
        "Satellite Name": "Starlink Shell 1 1447",
        "Satellite Number": 1447,
        "Semi-Major Axis(m)": 6931778.249405717,
        "Time(s)": 980
    },
    {
        "Altitude(m)": 557599.2693937575,
        "Argument of Periapsis(deg)": 0.034509269471612446,
        "Eccentricity": 0.0,
        "Inclination(deg)": 53.0,
        "Latitude(deg)": -15.802153135848357,
        "Longitude(deg)": -151.4022378515426,
        "Mean Anomaly(deg)": -19.761910847885254,
        "RAAN(deg)": 324.94864176233017,
        "Satellite Name": "Starlink Shell 1 1447",
        "Satellite Number": 1447,
        "Semi-Major Axis(m)": 6931778.249405717,
        "Time(s)": 990
    }
]